STARLINK-1361           
1 45567U 20025AN  23149.78342317  .00001404  00000+0  11309-3 0  9995
2 45567  53.0535 322.7123 0000816  92.1642 267.9440 15.06396921172407
STARLINK-1363           
1 45568U 20025AP  23149.86454233  .00014850  00000+0  10142-2 0  9998
2 45568  53.0545 322.5866 0000827  95.7768 264.3316 15.06381526172409
STARLINK-1366           
1 45569U 20025AQ  23149.91980728  .00001887  00000+0  14553-3 0  9995
2 45569  53.0539 322.0970 0000729  70.6559 289.4509 15.06392256172410
STARLINK-1376           
1 45570U 20025AR  23149.77974852  .00001275  00000+0  10449-3 0  9993
2 45570  53.0540 322.7273 0000900  72.9831 287.1257 15.06387342172398
STARLINK-1261           
1 45571U 20025AS  23149.86174778  .00003096  00000+0  22669-3 0  9993
2 45571  53.0536 312.3612 0000987  92.3052 267.8050 15.06390505172562
STARLINK-1320           
1 45572U 20025AT  23149.75193058  .00018234  00000+0  11690-2 0  9995
2 45572  53.0541 312.4746 0000454 273.1606  86.9332 15.08578048172544
STARLINK-1321           
1 45573U 20025AU  23149.83226144 -.00000609  00000+0 -22027-4 0  9995
2 45573  53.0549 312.4905 0000701  87.7413 272.3656 15.06387721172241
STARLINK-1324           
1 45574U 20025AV  23149.72537124  .00000821  00000+0  74006-4 0  9995
2 45574  53.0541 312.9718 0001363  93.5936 266.5209 15.06391044172546
STARLINK-1328           
1 45576U 20025AX  23149.75116845  .00003922  00000+0  28206-3 0  9998
2 45576  53.0539 312.8528 0001082  97.3334 262.7778 15.06397605172543
STARLINK-1331           
1 45578U 20025AZ  23149.74379490  .00000404  00000+0  46027-4 0  9990
2 45578  53.0537 312.8853 0000988 104.0749 256.0350 15.06392242172548
STARLINK-1332           
1 45579U 20025BA  23149.61850206 -.00002316  00000+0 -13674-3 0  9993
2 45579  53.0524 273.6179 0001006  77.5276 282.5825 15.06384559172487
STARLINK-1333           
1 45580U 20025BB  23149.75024947  .00007641  00000+0  53125-3 0  9994
2 45580  53.0538 322.8611 0000942 119.5727 240.5356 15.06401247172395
STARLINK-1335           
1 45581U 20025BC  23149.75486103  .00001736  00000+0  13540-3 0  9997
2 45581  53.0537 312.8382 0000836  75.4833 284.6249 15.06394222172539
STARLINK-1337           
1 45582U 20025BD  23149.77697706  .00007773  00000+0  54014-3 0  9991
2 45582  53.0544 312.7382 0000877  89.6782 270.4307 15.06399604172539
STARLINK-1340           
1 45583U 20025BE  23149.89123847  .00000394  00000+0  45351-4 0  9992
2 45583  53.0534 312.2240 0000470  14.3493 345.7509 15.06393068172550
STARLINK-1343           
1 45584U 20025BF  23149.78441528  .00003988  00000+0  28340-4 0  9991
2 45584  53.0492 294.5682 0001356  45.4129 314.7001 15.76740205172796
STARLINK-1347           
1 45586U 20025BH  23149.83594515  .00004496  00000+0  32053-3 0  9994
2 45586  53.0545 312.4733 0000552 111.9657 248.1390 15.06393812172530
STARLINK-1349           
1 45587U 20025BJ  23149.87280951  .00003100  00000+0  22691-3 0  9993
2 45587  53.0545 312.3086 0000941  91.9279 268.1817 15.06396714172552
STARLINK-1360           
1 45588U 20025BK  23149.71799823  .00005841  00000+0  41076-3 0  9992
2 45588  53.0535 313.0065 0000741  72.4775 287.6295 15.06394529172525
STARLINK-1364           
1 45589U 20025BL  23149.71431274 -.00001285  00000+0 -67401-4 0  9997
2 45589  53.0539 313.0203 0000670  80.0908 280.0157 15.06388326172520
STARLINK-1365           
1 45590U 20025BM  23149.79632578  .00003969  00000+0  28521-3 0  9995
2 45590  53.0539 342.6552 0000760  97.8341 262.2735 15.06393957172131
XINGYUN-2 01            
1 45602U 20028A   23149.87704053  .00001512  00000+0  11594-3 0  9993
2 45602  97.4511 159.2921 0014159  66.8152 293.4564 15.03190223166960
XINGYUN-2 02            
1 45603U 20028B   23149.86766687  .00002217  00000+0  16787-3 0  9996
2 45603  97.5264 165.4439 0014123 120.3547 239.9077 15.03231848166968
ULTP                    
1 45605U 20011D   23149.86035865  .00019026  00000+0  39025-3 0  9993
2 45605  51.6407 202.7847 0006338 359.7487   0.3496 15.46049973170365
COSMOS 2546             
1 45608U 20031A   23148.94030779 -.00000214  00000+0  00000+0 0  9992
2 45608  63.1655 187.7679 6606215 266.3279  21.9157  2.00598766 22098
XJS G                   
1 45611U 20032A   23149.63362427  .00022376  00000+0  42541-3 0  9994
2 45611  35.0313   9.5724 0003602 301.6908  58.3463 15.47292382168185
XJS H                   
1 45612U 20032B   23149.87640589  .00075380  00000+0  83846-3 0  9995
2 45612  35.0340 359.9317 0008588  27.7561 332.3623 15.61618640168307
HEAD-4                  
1 45624U 20034A   23149.85282619  .00024068  00000+0  52780-3 0  9994
2 45624  97.4224 298.2123 0008225   6.0725 354.0621 15.44037763167033
GAOFEN 9-02             
1 45625U 20034B   23149.87217145  .00006575  00000+0  27767-3 0  9999
2 45625  97.4359 290.6558 0010548  29.4493 330.7336 15.23551337166480
STARLINK-1441           
1 45658U 20035B   23149.83687967  .00005745  00000+0  40440-3 0  9996
2 45658  53.0535 302.4676 0000974  72.0729 288.0366 15.06389097165773
STARLINK-1442           
1 45659U 20035C   23149.83961272  .00006629  00000+0  46351-3 0  9990
2 45659  53.0526 302.4618 0001074  70.4863 289.6242 15.06396758165764
STARLINK-1443           
1 45660U 20035D   23149.71523194  .00001466  00000+0  11728-3 0  9990
2 45660  53.0536 303.0132 0000947  72.0856 288.0237 15.06392426165757
STARLINK-1444           
1 45661U 20035E   23149.73367329  .00002954  00000+0  21715-3 0  9999
2 45661  53.0537 302.9313 0001297 102.1169 257.9966 15.06391077165754
STARLINK-1445           
1 45662U 20035F   23149.74840573  .00004175  00000+0  29907-3 0  9996
2 45662  53.0535 302.8663 0000987  85.7761 274.3341 15.06393917165754
STARLINK-1446           
1 45663U 20035G   23149.68575898  .00006034  00000+0  42370-3 0  9990
2 45663  53.0530 303.1509 0000157   9.2235 350.8757 15.06393834165747
STARLINK-1448           
1 45665U 20035J   23149.71891781 -.00005496  00000+0 -35039-3 0  9995
2 45665  53.0536 302.9963 0000939  92.1494 267.9602 15.06395701165744
STARLINK-1449           
1 45666U 20035K   23149.72260031 -.00000174  00000+0  71808-5 0  9998
2 45666  53.0535 302.9528 0001102  82.9009 277.2105 15.06387633165740
STARLINK-1450           
1 45667U 20035L   23149.72534898  .00001969  00000+0  15105-3 0  9992
2 45667  53.0537 302.9968 0000944  82.0034 278.1062 15.06400514165749
STARLINK-1451           
1 45668U 20035M   23149.69217415  .00002201  00000+0  16666-3 0  9995
2 45668  53.0538 303.1189 0001216  95.8061 264.3066 15.06393004165751
STARLINK-1452           
1 45669U 20035N   23149.74103131  .00003565  00000+0  25816-3 0  9992
2 45669  53.0540 302.8994 0000753  85.8133 274.2942 15.06391961165752
STARLINK-1453           
1 45670U 20035P   23149.73273980  .00007302  00000+0  50861-3 0  9994
2 45670  53.0533 272.9356 0000852  77.4522 282.6562 15.06397775166069
STARLINK-1454           
1 45671U 20035Q   23149.74473200  .00002949  00000+0  21680-3 0  9992
2 45671  53.0539 302.8828 0000787  94.8706 265.2372 15.06393940165747
STARLINK-1455           
1 45672U 20035R   23149.75485599  .00002814  00000+0  20776-3 0  9994
2 45672  53.0540 272.8345 0000596  98.8389 261.2668 15.06390447166170
STARLINK-1456           
1 45673U 20035S   23149.69311673  .00003341  00000+0  24307-3 0  9999
2 45673  53.0545 303.1123 0001423 104.8779 255.2367 15.06398931165757
STARLINK-1457           
1 45674U 20035T   23149.70049436  .00003810  00000+0  27456-3 0  9996
2 45674  53.0533 303.0792 0001196  88.7667 271.3459 15.06393040165723
STARLINK-1458           
1 45675U 20035U   23149.68943329  .00000874  00000+0  77554-4 0  9990
2 45675  53.0548 303.1301 0001092  99.9422 260.1690 15.06391920165712
STARLINK-1460           
1 45676U 20035V   23149.72629157  .00004063  00000+0  29154-3 0  9992
2 45676  53.0536 302.9634 0001017  49.1204 310.9873 15.06395585165716
STARLINK-1392           
1 45677U 20035W   23149.80369224  .00004145  00000+0  29708-3 0  9994
2 45677  53.0532 302.6168 0000731  83.5300 276.5772 15.06390999165767
STARLINK-1393           
1 45678U 20035X   23149.66455207  .00003395  00000+0  24674-3 0  9999
2 45678  53.0532 293.2428 0001135  90.9284 269.1835 15.06396318165864
STARLINK-1394           
1 45679U 20035Y   23149.66823940  .00000283  00000+0  37880-4 0  9990
2 45679  53.0537 293.2293 0001082  93.7483 266.3630 15.06392296165888
STARLINK-1395           
1 45680U 20035Z   23149.67560976  .00004755  00000+0  33791-3 0  9994
2 45680  53.0532 293.1894 0000872  74.4546 285.6539 15.06396769165873
STARLINK-1396           
1 45681U 20035AA  23149.80461734  .00001348  00000+0  10936-3 0  9993
2 45681  53.0548 292.6093 0001126  93.3294 266.7824 15.06398415165900
STARLINK-1397           
1 45682U 20035AB  23149.67929629  .00006273  00000+0  43964-3 0  9990
2 45682  53.0537 293.1740 0001131  72.4895 287.6217 15.06399612165879
STARLINK-1399           
1 45683U 20035AC  23149.66086387  .00002184  00000+0  16550-3 0  9993
2 45683  53.0544 293.2597 0000972 131.1101 228.9972 15.06396208165889
STARLINK-1401           
1 45684U 20035AD  23149.66442179  .00023239  00000+0  14088-2 0  9996
2 45684  53.0531 292.1232 0001446 192.3795 167.7160 15.10476049165904
STARLINK-1402           
1 45685U 20035AE  23149.66478808  .00021478  00000+0  13699-2 0  9995
2 45685  53.0541 292.8575 0000978 310.2201  49.8703 15.08663225165897
STARLINK-1404           
1 45686U 20035AF  23149.69403732  .00004767  00000+0  33876-3 0  9995
2 45686  53.0537 293.1152 0001041  80.3846 279.7261 15.06394652165896
STARLINK-1408           
1 45688U 20035AH  23149.76471206  .00007820  00000+0  35148-3 0  9993
2 45688  53.0601 278.3109 0008020 126.0739 234.1000 15.22041625166108
STARLINK-1413           
1 45689U 20035AJ  23149.77881478  .00005565  00000+0  39223-3 0  9993
2 45689  53.0529 292.7285 0000871  86.2327 273.8762 15.06393994165812
